SBIRS GEO-5 (USA 315)   
1 48618U 21042A   25009.09285507  .00000132  00000+0  00000+0 0  9992
2 48618   5.8302 326.1979 0002708 312.5732 244.4327  1.00271991 13509
FENGYUN 4B              
1 48808U 21047A   25009.26963944 -.00000319  00000+0  00000+0 0  9993
2 48808   0.0565  69.4627 0011022   0.1755 241.1951  1.00269191 13314
SXM-8                   
1 48838U 21049A   25006.25952234 -.00000191  00000+0  00000+0 0  9992
2 48838   0.0161  42.8596 0003754   7.6199  63.8690  1.00271922 13310
TIANLIAN 1-05           
1 49011U 21063A   25009.32385291  .00000118  00000+0  00000+0 0  9994
2 49011   0.2450  74.9340 0005246 199.4456 328.0598  1.00270261 12827
STAR ONE D2             
1 49055U 21069A   25008.80642802 -.00000253  00000+0  00000+0 0  9995
2 49055   0.0140  37.2575 0001672 215.1981  76.3458  1.00269200 12648
EUTELSAT QUANTUM        
1 49056U 21069B   25009.05813275  .00000137  00000+0  00000+0 0  9998
2 49056   0.0518 286.6417 0002846   1.4119 249.3996  1.00269944 12673
ZHONGXING-2E            
1 49062U 21071A   25009.17966245 -.00000281  00000+0  00000+0 0  9998
2 49062   0.0638 236.8646 0001651  18.2244  16.5657  1.00273876 12781
TJS-7                   
1 49115U 21077A   25009.27187066 -.00000113  00000+0  00000+0 0  9994
2 49115   0.0192  52.6534 0002038 180.0629 234.7395  1.00270374  4313
CHINASAT 9B             
1 49125U 21080A   25009.20535385 -.00000302  00000+0  00000+0 0  9993
2 49125   0.0128 326.2759 0003130 301.6542  16.3859  1.00271209 12395
SHIJIAN-21 (SJ-21)      
1 49330U 21094A   25009.36251884 -.00000220  00000+0  00000+0 0  9991
2 49330  10.1985  43.7322 0076216  37.2814 307.6468  1.00261258 12005
SES-17                  
1 49332U 21095A   25008.02099321 -.00000259  00000+0  00000+0 0  9994
2 49332   0.0126  44.4585 0001200 238.4855 125.3194  1.00268904 12570
SYRACUSE 4A             
1 49333U 21095B   25009.05813275  .00000146  00000+0  00000+0 0  9995
2 49333   0.0190  44.9609 0001453 237.3756 252.9290  1.00270143 12709
QZS-1R                  
1 49336U 21096A   25007.58730313 -.00000275  00000+0  00000+0 0  9990
2 49336  36.3692  87.4412 0757408 271.7765  93.3338  1.00252151 11736
ZHONGXING-1D            
1 49505U 21114A   25009.27493917 -.00000326  00000+0  00000+0 0  9990
2 49505   0.0397 172.7333 0002271  76.8545  88.5827  1.00269989 11573
STPSAT-6                
1 49817U 21118A   25009.25523403 -.00000034  00000+0  00000+0 0  9998
2 49817   0.0216  80.0188 0002320 218.4793 150.6972  1.00270575 11319
LDPE-1                  
1 49818U 21118B   25009.23167263 -.00000078  00000+0  00000+0 0  9993
2 49818   2.8876  85.2464 0000721 253.1247 126.3485  0.99503890 11381
EXPRESS AMU-7           
1 50001U 21123A   25009.32300029 -.00000232  00000+0  00000+0 0  9996
2 50001   0.0125 322.3859 0000348 257.7471 150.2389  1.00271444 11289
EXPRESS AMU-3           
1 50002U 21123B   25008.41364414 -.00000309  00000+0  00000+0 0  9999
2 50002   0.0179 343.1790 0000253 178.9508 197.8711  1.00270755  1777
TIANLIAN 2-02           
1 50005U 21124A   25009.28301904 -.00000004  00000+0  00000+0 0  9996
2 50005   0.1389 273.4214 0004669  10.3902  98.0831  1.00271563 11361
TURKSAT 5B              
1 50212U 21126A   25009.08243677  .00000157  00000+0  00000+0 0  9996
2 50212   0.0662 348.2710 0005173 321.4361 230.8351  1.00268975 11043
INMARSAT 6-F1           
1 50319U 21128A   25009.33714562 -.00000161  00000+0  00000+0 0  9996
2 50319   0.0129 324.9606 0000165 295.5140  53.7550  1.00269226 11005
SHIYAN 12 01 (SY-12 01) 
1 50321U 21129A   25009.31807894 -.00000280  00000+0  00000+0 0  9991
2 50321   2.3192  87.5426 0003567 246.2253 352.3849  1.00076644 11247
SHIYAN 12 02 (SY-12 02) 
1 50322U 21129B   25009.18710293  .00000111  00000+0  00000+0 0  9995
2 50322   2.3189  87.5615 0000986 218.1085 278.1132  1.00473790 11240
TJS-9                   
1 50574U 21135A   25009.20473968 -.00000288  00000+0  00000+0 0  9995
2 50574   0.1054 259.6073 0004405 289.3035 130.8451  1.00276566 11173
USA 324                 
1 51280U 22006A   24365.43046562 -.00000266  00000+0  00000+0 0  9999
2 51280   0.2125  85.3050 0002332 333.5343 332.6236  1.00331248 10775
USA 325                 
1 51281U 22006B   24365.32038769  .00000129  00000+0  00000+0 0  9995
2 51281   0.5563  86.7866 0001877 252.2319 254.3612  1.00163186  2041
GOES 18                 
1 51850U 22021A   25009.29335782  .00000108  00000+0  00000+0 0  9998
2 51850   0.0363 180.3043 0000554 131.4219 125.9424  1.00271915  1337
ZHONGXING-6D            
1 52255U 22038A   25008.35209592 -.00000342  00000+0  00000+0 0  9992
2 52255   0.0250 260.9674 0003190  22.4158  76.5717  1.00268647 10162
NILESAT 301             
1 52817U 22061A   25009.24765866 -.00000047  00000+0  00000+0 0  9994
2 52817   0.0511 336.4978 0005214 331.6674 242.9922  1.00270212  9480
CMS-02 (GSAT 24)        
1 52903U 22067A   25009.12341135 -.00000153  00000+0  00000+0 0  9990
2 52903   0.0166 294.3278 0004945 334.7098 327.2873  1.00269195  9357
MEASAT 3D               
1 52904U 22067B   25009.21091094 -.00000230  00000+0  00000+0 0  9993
2 52904   0.0569 299.9409 0003197 351.2203 345.2467  1.00269341  9398
SES-22                  
1 52933U 22071A   25009.31725615  .00000115  00000+0  00000+0 0  9995
2 52933   0.0024   1.5906 0002595 282.8491 159.8552  1.00270081  2271
WFOV (USA 332)          
1 52940U 22073A   25009.41568564 -.00000354  00000+0  00000+0 0  9990
2 52940   2.3598  85.4276 0002319 167.7357 124.9572  1.00271550  9114
TIANLIAN 2-03           
1 53100U 22078A   25008.66932575  .00000085  00000+0  00000+0 0  9997
2 53100   0.6979 279.3367 0003061  14.2144  66.4071  1.00272821  9292
SBIRS GEO-6 (USA 336)   
1 53355U 22092A   25009.27667677 -.00000277  00000+0  00000+0 0  9995
2 53355   4.2288 311.9225 0002647 328.4563  67.2736  1.00270361  8986
EUTELSAT KONNECT VHTS   
1 53765U 22110A   25007.93799381  .00000029  00000+0  00000+0 0  9994
2 53765   0.0535  92.3078 0002875 188.3465 167.4406  1.00268674  1561
ZHONGXING-1E            
1 53813U 22112A   25009.21646781 -.00000139  00000+0  00000+0 0  9991
2 53813   0.0525 230.9080 0004892  45.9578 351.4888  1.00272213  8594
SES-20                  
1 53960U 22123A   25008.52744476 -.00000088  00000+0  00000+0 0  9992
2 53960   0.0228  49.9718 0000635  27.9202 117.1921  1.00268225  8276
SES-21                  
1 53961U 22123B   25008.22915535  .00000081  00000+0  00000+0 0  9998
2 53961   0.0397  33.6337 0001193 266.0478 119.9183  1.00274489  1948
GALAXY 33 (G-33)        
1 54026U 22128A   25009.33305705  .00000090  00000+0  00000+0 0  9991
2 54026   0.0156 350.9183 0002065 296.1601 168.9297  1.00269787  8491
GALAXY 34 (G-34)        
1 54027U 22128B   25009.22815326  .00000069  00000+0  00000+0 0  9991
2 54027   0.0204  34.0969 0001493 258.5171 129.6209  1.00272573  8658
ANGOSAT 2               
1 54033U 22131A   25009.25365344  .00000146  00000+0  00000+0 0  9991
2 54033   0.0304 142.6782 0000501 178.3341 262.3292  1.00270072  8213
EUTELSAT HOTBIRD 13F    
1 54048U 22134A   25009.25165517  .00000097  00000+0  00000+0 0  9995
2 54048   0.0672 289.0166 0002144  65.5047 218.0821  1.00270576  8129
LDPE-2                  
1 54219U 22144A   25009.27873773 -.00000095  00000+0  00000+0 0  9997
2 54219   4.3092  64.6937 0000493 304.3118 105.7686  0.99894635  6565
EUTELSAT HOTBIRD 13G    
1 54225U 22146A   25009.25165517  .00000098  00000+0  00000+0 0  9996
2 54225   0.0591 237.3910 0001983 307.6928  27.5285  1.00271298  2210
ZHONGXING-19            
1 54230U 22148A   25009.28154207 -.00000069  00000+0  00000+0 0  9990
2 54230   0.0289  87.5383 0008789 168.5727 117.6993  1.00271718  8121
GALAXY 31 (G-31)        
1 54243U 22153A   25008.54064163  .00000025  00000+0  00000+0 0  9990
2 54243   0.0155  27.5112 0001664 263.3072 251.1388  1.00270708  7896
GALAXY 32 (G-32)        
1 54244U 22153B   25009.23106448 -.00000163  00000+0  00000+0 0  9995
2 54244   0.0124  27.2471 0002307 293.7932 140.1429  1.00273212  7891
EUTELSAT 10B            
1 54259U 22157A   25009.01716098  .00000079  00000+0  00000+0 0  9994
2 54259   0.0558  90.6226 0000284   3.8626  30.4857  1.00267734  7777
GALAXY 35 (G-35)        
1 54741U 22170A   25009.30204588 -.00000151  00000+0  00000+0 0  9995
2 54741   0.0193  34.2183 0002279 257.2360 193.2614  1.00269880  7649
GALAXY 36 (G-36)        
1 54742U 22170B   25009.23141199 -.00000174  00000+0  00000+0 0  9991
2 54742   0.0163  75.6238 0000940 319.9995  67.6779  1.00269920  7528
METEOSAT-12 (MTG-I1)    
1 54743U 22170C   25009.24904875  .00000004  00000+0  00000+0 0  9992
2 54743   0.6307  41.7151 0001642 235.2706 281.3939  1.00273220  7726
SHIJIAN-23 (SJ-23)      
1 55131U 23002A   25009.30929076 -.00000198  00000+0  00000+0 0  9991
2 55131   2.3662  85.0912 0002397 202.9314  77.9760  1.00434996  7259
APSTAR-6E               
1 55239U 23005A   25008.98983285 -.00000307  00000+0  00000+0 0  9990
2 55239   0.0500 235.9967 0003132  10.6249 352.4785  1.00268896 13438
USA 342                 
1 55263U 23008A   25005.21854981  .00000153  00000+0  00000+0 0  9991
2 55263   0.0087  67.1316 0000137 273.5965 226.9319  1.00271586  2116
LDPE-3A                 
1 55264U 23008B   25009.27130719 -.00000201  00000+0  00000+0 0  9993
2 55264   0.8667  87.6199 0002386 199.1160  65.0285  1.00434839  6562
ELEKTRO-L 4             
1 55506U 23016A   25009.23650121 -.00000047  00000+0  00000+0 0  9999
2 55506   0.0480 190.6923 0001103  91.3480  77.9355  1.00273788  7060
AMAZONAS NEXUS          
1 55508U 23017A   25008.02220955 -.00000269  00000+0  00000+0 0  9992
2 55508   0.0382  44.4565 0003195 276.4288  93.8897  1.00267959  1779
ZHONGXING-26            
1 55686U 23023A   25009.27389660 -.00000343  00000+0  00000+0 0  9996
2 55686   0.0755  77.4764 0001951 277.5553 337.7276  1.00266311  6971
